IXPE                    
1 49954U 21121A   24004.61095220  .00004544  00000+0  32455-3 0  9991
2 49954   0.2293 172.5093 0010128   0.1351 187.3699 14.96011206113196
